{
  "type": "FeatureCollection",
  "features": [
    {
      "type": "Feature",
      "properties": { "unit_code": "001", "thai_name": "แขวงทดสอบ ก", "parent_code": "01" },
      "geometry": {
        "type": "Polygon",
        "coordinates": [
          [[100, 13], [100.4, 13], [100.4, 13.4], [100, 13.4], [100, 13]],
          [[100.1, 13.1], [100.1, 13.2], [100.2, 13.2], [100.2, 13.1], [100.1, 13.1]]
        ]
      }
    },
    {
      "type": "Feature",
      "properties": { "unit_code": "002", "thai_name": "  แขวงทดสอบ ข  ", "parent_code": "01", "english_name": "Synthetic B" },
      "geometry": {
        "type": "MultiPolygon",
        "coordinates": [
          [
            [[100.5, 13], [100.9, 13], [100.9, 13.4], [100.5, 13.4], [100.5, 13]],
            [[100.6, 13.1], [100.6, 13.2], [100.7, 13.2], [100.7, 13.1], [100.6, 13.1]]
          ],
          [[[101, 13], [101.1, 13], [101.1, 13.1], [101, 13.1], [101, 13]]]
        ]
      }
    }
  ]
}
